STARLINK-36375          
1 67920U 26036S   26083.25002315 -.02226388  00000+0 -80103-1 0  9993
2 67920  42.9994 163.4810 0001226 312.8165  51.5503 15.31529927  5988
STARLINK-36405          
1 67921U 26036T   26082.36032704 -.00278644  00000+0 -50006-2 0  9990
2 67921  42.9985 168.8648 0001759 253.3939 106.6728 15.50091528  5800
STARLINK-36383          
1 67922U 26036U   26082.58767343  .00158332  00000+0  74184-3 0  9992
2 67922  42.9998 164.4440 0002827 281.9711  78.0844 15.81982911  5876
STARLINK-36406          
1 67923U 26036V   26082.57356137  .00030602  00000+0  52452-3 0  9990
2 67923  43.0005 167.8927 0002811 249.0572 110.9987 15.50624435  5838
STARLINK-36714          
1 67924U 26036W   26083.25002315 -.02158081  00000+0 -67359-1 0  9999
2 67924  42.9997 163.2381 0001170 287.0465 175.9418 15.35862663  5987
STARLINK-36726          
1 67925U 26036X   26082.93806565  .00083909  00000+0  14202-2 0  9995
2 67925  43.0000 165.4573 0000823 346.0075  14.0762 15.50590481  5897
STARLINK-36758          
1 67926U 26036Y   26083.25002315 -.01845325  00000+0 -49481-1 0  9990
2 67926  42.9989 163.2634 0001530 285.4899 168.2255 15.40493533  5980
STARLINK-36728          
1 67927U 26036Z   26083.25002315 -.01849418  00000+0 -52936-1 0  9997
2 67927  42.9993 163.0584 0001325 294.8106 241.6822 15.38537513  5985
STARLINK-36771          
1 67928U 26036AA  26083.25002315 -.01859867  00000+0 -50245-1 0  9998
2 67928  42.9989 163.1455 0001420 292.7004 208.7190 15.40296730  5987
STARLINK-36809          
1 67929U 26036AB  26083.25002315 -.01858907  00000+0 -49992-1 0  9990
2 67929  42.9995 163.1195 0001323 292.0147 219.8054 15.40431971  5989
STARLINK-36865          
1 67930U 26036AC  26083.25002315 -.01835880  00000+0 -55089-1 0  9991
2 67930  42.9992 162.8724 0001159 266.0220 345.0063 15.37075703  5987
STARLINK-36781          
1 67931U 26036AD  26083.25002315 -.02116418  00000+0 -64505-1 0  9995
2 67931  42.9996 162.9399 0001550 262.5662 320.7189 15.36526086  5980
STARLINK-36301          
1 67932U 26037A   26083.25002315 -.01917572  00000+0 -31049-1 0  9993
2 67932  42.9993 110.1011 0001120 278.7161 276.1052 15.55482423  5452
STARLINK-36852          
1 67933U 26037B   26083.25002315  .00023399  00000+0  40422-3 0  9993
2 67933  42.9993 111.2089 0001390 264.8871 201.5892 15.50527394  5538
STARLINK-36861          
1 67934U 26037C   26083.25002315 -.00692321  00000+0 -12679-1 0  9994
2 67934  42.9993 110.3263 0001279 258.3301 205.5190 15.51011637  5539
STARLINK-36860          
1 67935U 26037D   26083.25002315  .00024356  00000+0  42004-3 0  9997
2 67935  43.0000 110.8166 0000898 291.9562 333.3464 15.50555619  5532
