[{"OBJECT_NAME":"STARLINK-36375","OBJECT_ID":"2026-036S","EPOCH":"2026-03-24T06:00:02.000160","MEAN_MOTION":15.31529927,"ECCENTRICITY":0.00012261,"INCLINATION":42.9994,"RA_OF_ASC_NODE":163.481,"ARG_OF_PERICENTER":312.8165,"MEAN_ANOMALY":51.5503,"EPHEMERIS_TYPE":0,"CLASSIFICATION_TYPE":"U","NORAD_CAT_ID":67920,"ELEMENT_SET_NO":999,"REV_AT_EPOCH":598,"BSTAR":-0.080102792,"MEAN_MOTION_DOT":-0.02226388,"MEAN_MOTION_DDOT":0},{"OBJECT_NAME":"STARLINK-36405","OBJECT_ID":"2026-036T","EPOCH":"2026-03-23T08:38:52.256256","MEAN_MOTION":15.50091528,"ECCENTRICITY":0.00017591,"INCLINATION":42.9985,"RA_OF_ASC_NODE":168.8648,"ARG_OF_PERICENTER":253.3939,"MEAN_ANOMALY":106.6728,"EPHEMERIS_TYPE":0,"CLASSIFICATION_TYPE":"U","NORAD_CAT_ID":67921,"ELEMENT_SET_NO":999,"REV_AT_EPOCH":580,"BSTAR":-0.0050006338,"MEAN_MOTION_DOT":-0.00278644,"MEAN_MOTION_DDOT":0},{"OBJECT_NAME":"STARLINK-36383","OBJECT_ID":"2026-036U","EPOCH":"2026-03-23T14:06:14.984352","MEAN_MOTION":15.81982911,"ECCENTRICITY":0.0002827,"INCLINATION":42.9998,"RA_OF_ASC_NODE":164.444,"ARG_OF_PERICENTER":281.9711,"MEAN_ANOMALY":78.0844,"EPHEMERIS_TYPE":0,"CLASSIFICATION_TYPE":"U","NORAD_CAT_ID":67922,"ELEMENT_SET_NO":999,"REV_AT_EPOCH":587,"BSTAR":0.00074183561,"MEAN_MOTION_DOT":0.00158332,"MEAN_MOTION_DDOT":0},{"OBJECT_NAME":"STARLINK-36406","OBJECT_ID":"2026-036V","EPOCH":"2026-03-23T13:45:55.702368","MEAN_MOTION":15.50624435,"ECCENTRICITY":0.00028115,"INCLINATION":43.0005,"RA_OF_ASC_NODE":167.8927,"ARG_OF_PERICENTER":249.0572,"MEAN_ANOMALY":110.9987,"EPHEMERIS_TYPE":0,"CLASSIFICATION_TYPE":"U","NORAD_CAT_ID":67923,"ELEMENT_SET_NO":999,"REV_AT_EPOCH":583,"BSTAR":0.00052451574,"MEAN_MOTION_DOT":0.00030602,"MEAN_MOTION_DDOT":0},{"OBJECT_NAME":"STARLINK-36714","OBJECT_ID":"2026-036W","EPOCH":"2026-03-24T06:00:02.000160","MEAN_MOTION":15.35862663,"ECCENTRICITY":0.000117,"INCLINATION":42.9997,"RA_OF_ASC_NODE":163.2381,"ARG_OF_PERICENTER":287.0465,"MEAN_ANOMALY":175.9418,"EPHEMERIS_TYPE":0,"CLASSIFICATION_TYPE":"U","NORAD_CAT_ID":67924,"ELEMENT_SET_NO":999,"REV_AT_EPOCH":598,"BSTAR":-0.067359342,"MEAN_MOTION_DOT":-0.02158081,"MEAN_MOTION_DDOT":0},{"OBJECT_NAME":"STARLINK-36726","OBJECT_ID":"2026-036X","EPOCH":"2026-03-23T22:30:48.872160","MEAN_MOTION":15.50590481,"ECCENTRICITY":8.237e-5,"INCLINATION":43,"RA_OF_ASC_NODE":165.4573,"ARG_OF_PERICENTER":346.0075,"MEAN_ANOMALY":14.0762,"EPHEMERIS_TYPE":0,"CLASSIFICATION_TYPE":"U","NORAD_CAT_ID":67925,"ELEMENT_SET_NO":999,"REV_AT_EPOCH":589,"BSTAR":0.0014202465,"MEAN_MOTION_DOT":0.00083909,"MEAN_MOTION_DDOT":0},{"OBJECT_NAME":"STARLINK-36758","OBJECT_ID":"2026-036Y","EPOCH":"2026-03-24T06:00:02.000160","MEAN_MOTION":15.40493533,"ECCENTRICITY":0.000153,"INCLINATION":42.9989,"RA_OF_ASC_NODE":163.2634,"ARG_OF_PERICENTER":285.4899,"MEAN_ANOMALY":168.2255,"EPHEMERIS_TYPE":0,"CLASSIFICATION_TYPE":"U","NORAD_CAT_ID":67926,"ELEMENT_SET_NO":999,"REV_AT_EPOCH":598,"BSTAR":-0.049480849,"MEAN_MOTION_DOT":-0.01845325,"MEAN_MOTION_DDOT":0},{"OBJECT_NAME":"STARLINK-36728","OBJECT_ID":"2026-036Z","EPOCH":"2026-03-24T06:00:02.000160","MEAN_MOTION":15.38537513,"ECCENTRICITY":0.00013259,"INCLINATION":42.9993,"RA_OF_ASC_NODE":163.0584,"ARG_OF_PERICENTER":294.8106,"MEAN_ANOMALY":241.6822,"EPHEMERIS_TYPE":0,"CLASSIFICATION_TYPE":"U","NORAD_CAT_ID":67927,"ELEMENT_SET_NO":999,"REV_AT_EPOCH":598,"BSTAR":-0.052935654,"MEAN_MOTION_DOT":-0.01849418,"MEAN_MOTION_DDOT":0},{"OBJECT_NAME":"STARLINK-36771","OBJECT_ID":"2026-036AA","EPOCH":"2026-03-24T06:00:02.000160","MEAN_MOTION":15.4029673,"ECCENTRICITY":0.00014202,"INCLINATION":42.9989,"RA_OF_ASC_NODE":163.1455,"ARG_OF_PERICENTER":292.7004,"MEAN_ANOMALY":208.719,"EPHEMERIS_TYPE":0,"CLASSIFICATION_TYPE":"U","NORAD_CAT_ID":67928,"ELEMENT_SET_NO":999,"REV_AT_EPOCH":598,"BSTAR":-0.050245367,"MEAN_MOTION_DOT":-0.01859867,"MEAN_MOTION_DDOT":0},{"OBJECT_NAME":"STARLINK-36809","OBJECT_ID":"2026-036AB","EPOCH":"2026-03-24T06:00:02.000160","MEAN_MOTION":15.40431971,"ECCENTRICITY":0.00013231,"INCLINATION":42.9995,"RA_OF_ASC_NODE":163.1195,"ARG_OF_PERICENTER":292.0147,"MEAN_ANOMALY":219.8054,"EPHEMERIS_TYPE":0,"CLASSIFICATION_TYPE":"U","NORAD_CAT_ID":67929,"ELEMENT_SET_NO":999,"REV_AT_EPOCH":598,"BSTAR":-0.049991503,"MEAN_MOTION_DOT":-0.01858907,"MEAN_MOTION_DDOT":0},{"OBJECT_NAME":"STARLINK-36865","OBJECT_ID":"2026-036AC","EPOCH":"2026-03-24T06:00:02.000160","MEAN_MOTION":15.37075703,"ECCENTRICITY":0.00011597,"INCLINATION":42.9992,"RA_OF_ASC_NODE":162.8724,"ARG_OF_PERICENTER":266.022,"MEAN_ANOMALY":345.0063,"EPHEMERIS_TYPE":0,"CLASSIFICATION_TYPE":"U","NORAD_CAT_ID":67930,"ELEMENT_SET_NO":999,"REV_AT_EPOCH":598,"BSTAR":-0.05508936,"MEAN_MOTION_DOT":-0.0183588,"MEAN_MOTION_DDOT":0},{"OBJECT_NAME":"STARLINK-36781","OBJECT_ID":"2026-036AD","EPOCH":"2026-03-24T06:00:02.000160","MEAN_MOTION":15.36526086,"ECCENTRICITY":0.000155,"INCLINATION":42.9996,"RA_OF_ASC_NODE":162.9399,"ARG_OF_PERICENTER":262.5662,"MEAN_ANOMALY":320.7189,"EPHEMERIS_TYPE":0,"CLASSIFICATION_TYPE":"U","NORAD_CAT_ID":67931,"ELEMENT_SET_NO":999,"REV_AT_EPOCH":598,"BSTAR":-0.064504959,"MEAN_MOTION_DOT":-0.02116418,"MEAN_MOTION_DDOT":0},{"OBJECT_NAME":"STARLINK-36301","OBJECT_ID":"2026-037A","EPOCH":"2026-03-24T06:00:02.000160","MEAN_MOTION":15.55482423,"ECCENTRICITY":0.000112,"INCLINATION":42.9993,"RA_OF_ASC_NODE":110.1011,"ARG_OF_PERICENTER":278.7161,"MEAN_ANOMALY":276.1052,"EPHEMERIS_TYPE":0,"CLASSIFICATION_TYPE":"U","NORAD_CAT_ID":67932,"ELEMENT_SET_NO":999,"REV_AT_EPOCH":545,"BSTAR":-0.031048822,"MEAN_MOTION_DOT":-0.01917572,"MEAN_MOTION_DDOT":0},{"OBJECT_NAME":"STARLINK-36852","OBJECT_ID":"2026-037B","EPOCH":"2026-03-24T06:00:02.000160","MEAN_MOTION":15.50527394,"ECCENTRICITY":0.00013908,"INCLINATION":42.9993,"RA_OF_ASC_NODE":111.2089,"ARG_OF_PERICENTER":264.8871,"MEAN_ANOMALY":201.5892,"EPHEMERIS_TYPE":0,"CLASSIFICATION_TYPE":"U","NORAD_CAT_ID":67933,"ELEMENT_SET_NO":999,"REV_AT_EPOCH":553,"BSTAR":0.00040421871,"MEAN_MOTION_DOT":0.00023399,"MEAN_MOTION_DDOT":0},{"OBJECT_NAME":"STARLINK-36861","OBJECT_ID":"2026-037C","EPOCH":"2026-03-24T06:00:02.000160","MEAN_MOTION":15.51011637,"ECCENTRICITY":0.0001279,"INCLINATION":42.9993,"RA_OF_ASC_NODE":110.3263,"ARG_OF_PERICENTER":258.3301,"MEAN_ANOMALY":205.519,"EPHEMERIS_TYPE":0,"CLASSIFICATION_TYPE":"U","NORAD_CAT_ID":67934,"ELEMENT_SET_NO":999,"REV_AT_EPOCH":553,"BSTAR":-0.012678903,"MEAN_MOTION_DOT":-0.00692321,"MEAN_MOTION_DDOT":0},{"OBJECT_NAME":"STARLINK-36860","OBJECT_ID":"2026-037D","EPOCH":"2026-03-24T06:00:02.000160","MEAN_MOTION":15.50555619,"ECCENTRICITY":8.984e-5,"INCLINATION":43,"RA_OF_ASC_NODE":110.8166,"ARG_OF_PERICENTER":291.9562,"MEAN_ANOMALY":333.3464,"EPHEMERIS_TYPE":0,"CLASSIFICATION_TYPE":"U","NORAD_CAT_ID":67935,"ELEMENT_SET_NO":999,"REV_AT_EPOCH":553,"BSTAR":0.00042004467,"MEAN_MOTION_DOT":0.00024356,"MEAN_MOTION_DDOT":0}]
